ONEWEB-0275             
1 48993U 21060AC  25124.74575999 -.00000168  00000+0 -47366-3 0  9996
2 48993  87.9019 310.1960 0001640  87.9687 272.1631 13.16593828185816
ONEWEB-0276             
1 48994U 21060AD  25124.55103097  .00000016  00000+0  92607-5 0  9992
2 48994  87.9016 310.2315 0001526  95.2740 264.8565 13.16592752185802
ONEWEB-0277             
1 48995U 21060AE  25124.79168678  .00000023  00000+0  27023-4 0  9992
2 48995  87.9012 310.2204 0001358  86.1973 273.9313 13.16592884185826
ONEWEB-0278             
1 48996U 21060AF  25124.78218264 -.00000076  00000+0 -23291-3 0  9991
2 48996  87.9016 310.1821 0001874  98.9001 261.2342 13.16592296185954
ONEWEB-0279             
1 48997U 21060AG  25124.79009862  .00000125  00000+0  29429-3 0  9997
2 48997  87.9015 310.1767 0001516  82.7658 277.3645 13.16592838185883
ONEWEB-0280             
1 48998U 21060AH  25124.80515435  .00000165  00000+0  39891-3 0  9996
2 48998  87.9018 310.1798 0001532 101.1580 258.9723 13.16594619185824
ONEWEB-0281             
1 48999U 21060AJ  25124.81067220 -.00000224  00000+0 -61967-3 0  9999
2 48999  87.9017 310.1770 0001791  85.9667 274.1669 13.16593539185892
ONEWEB-0282             
1 49000U 21060AK  25125.22074444  .00000013  00000+0  28765-6 0  9991
2 49000  87.9015 310.1109 0001568  93.7364 266.3946 13.16594237187241
